SUOMI NPP               
1 37849U 11061A   26197.31026041  .00000013  00000+0  27040-4 0  9992
2 37849  98.7955 137.9884 0000793 207.7963 152.3171 14.19522679762572
YAOGAN-12               
1 37875U 11066B   26197.30016694  .00001783  00000+0  70012-4 0  9990
2 37875  97.1120 234.5022 0010893 119.0331 241.2002 15.26899387816485
BEIDOU-2 M4             
1 38251U 12018B   26197.11680253 -.00000075  00000+0  00000+0 0  9993
2 38251  55.6313 303.1119 0012121 272.2752  87.6168  1.86229294 96482
ARIRANG-3 (KOMPSAT-3)   
1 38338U 12025B   26197.25231256  .00000176  00000+0  44257-4 0  9995
2 38338  98.1185 154.2138 0006161  36.0894 324.0722 14.62229488755594
METOP-B                 
1 38771U 12049A   26197.26104154  .00000047  00000+0  41102-4 0  9992
2 38771  98.6490 248.1779 0001108 249.3234 110.7825 14.21446589717394
SJ-9A                   
1 38860U 12056A   26197.26345012  .00000452  00000+0  58107-4 0  9992
2 38860  97.6729 168.1675 0026071 158.3312 201.9013 14.85529759703900
COSMOS 2484 (RODNIK-S 6)
1 39059U 13001C   26197.28470853 -.00000051  00000+0 -43700-3 0  9997
2 39059  82.4991 203.8019 0025610 333.2051  26.7704 12.42940308612171
SARAL                   
1 39086U 13009A   26197.29958120  .00000019  00000+0  23147-4 0  9990
2 39086  98.5556  23.4988 0001761 163.9147 196.2094 14.32895955699776
STRAND-1                
1 39090U 13009E   26197.29699542  .00000112  00000+0  51908-4 0  9995
2 39090  98.3935  16.8169 0009461 138.0921 222.0991 14.37179203701241
BRITE-AUSTRIA           
1 39091U 13009F   26197.04390101  .00000070  00000+0  38472-4 0  9992
2 39091  98.4009  15.7674 0010809 148.2512 211.9329 14.36552721701196
GAOFEN-1                
1 39150U 13018A   26197.27091109 -.00000168  00000+0 -16773-4 0  9999
2 39150  97.9089 268.7458 0017125 167.7381 192.4249 14.76518116712530
NEE-01 PEGASO           
1 39151U 13018B   26196.33340642  .00001174  00000+0  11643-3 0  9991
2 39151  98.1256 341.4213 0013693  73.9409 286.3317 14.93789204714902
PROBA-V                 
1 39159U 13021A   26196.93582777  .00000014  00000+0  24298-4 0  9999
2 39159  98.3606 174.1262 0005231  58.2568 301.9121 14.23603473685200
ARIRANG-5 (KOMPSAT-5)   
1 39227U 13042A   26197.29668848  .00000101  00000+0  11557-4 0  9993
2 39227  97.6202  23.5881 0005321  55.1345 305.0381 15.04495046708230
GONETS-M 5              
1 39249U 13048A   26197.33526417  .00000162  00000+0  10994-2 0  9992
2 39249  82.4857 325.2097 0017379 147.2830 212.9330 12.42893114582508
GONETS-M 7              
1 39251U 13048C   26197.29769193 -.00000005  00000+0 -11041-3 0  9993
2 39251  82.4923 328.1705 0018173 148.6335 211.5833 12.42915414582456
FENGYUN 3C              
1 39260U 13052A   26197.23190275  .00000020  00000+0  31456-4 0  9999
2 39260  98.4999 169.7762 0013626 302.7545  57.2316 14.15760923662671
CASSIOPE                
1 39265U 13055A   26197.26593614  .00016995 -54648-6  18174-3 0  9998
2 39265  80.9127  31.3350 0282713 324.2424  34.0157 15.27458637672107
APRIZESAT 7             
1 39416U 13066A   26197.13427305  .00000553  00000+0  60072-4 0  9990
2 39416  97.7723 149.9413 0037264 114.3183 246.1934 14.91620251685542
ZACUBE-1 (TSHEPISOSAT)  
1 39417U 13066B   26197.26768226  .00001132  00000+0  91041-4 0  9999
2 39417  97.8007 159.7476 0044071 151.7764 208.5862 15.01331206685094
APRIZESAT 8             
1 39425U 13066K   26197.26520000  .00000351  00000+0  44048-4 0  9991
2 39425  97.8230 144.3303 0045582 188.3393 171.7071 14.87697277683998
