OBJECT_NAME,OBJECT_ID,EPOCH,MEAN_MOTION,ECCENTRICITY,INCLINATION,RA_OF_ASC_NODE,ARG_OF_PERICENTER,MEAN_ANOMALY,EPHEMERIS_TYPE,CLASSIFICATION_TYPE,NORAD_CAT_ID,ELEMENT_SET_NO,REV_AT_EPOCH,BSTAR,MEAN_MOTION_DOT,MEAN_MOTION_DDOT
SUOMI NPP,2011-061A,2026-07-16T07:26:46.499424,14.19522679,.00007938,98.7955,137.9884,207.7963,152.3171,0,U,37849,999,76257,.27040306E-4,.13E-6,0
YAOGAN-12,2011-066B,2026-07-16T07:12:14.423616,15.26899387,.00108939,97.1120,234.5022,119.0331,241.2002,0,U,37875,999,81648,.70012026E-4,.1783E-4,0
BEIDOU-2 M4,2012-018B,2026-07-16T02:48:11.738592,1.86229294,.00121215,55.6313,303.1119,272.2752,87.6168,0,U,38251,999,9648,0,-.75E-6,0
ARIRANG-3 (KOMPSAT-3),2012-025B,2026-07-16T06:03:19.805184,14.62229488,.00061614,98.1185,154.2138,36.0894,324.0722,0,U,38338,999,75559,.44257027E-4,.176E-5,0
METOP-B,2012-049A,2026-07-16T06:15:53.989056,14.21446589,.00011088,98.6490,248.1779,249.3234,110.7825,0,U,38771,999,71739,.41101846E-4,.47E-6,0
SJ-9A,2012-056A,2026-07-16T06:19:22.090368,14.85529759,.00260712,97.6729,168.1675,158.3312,201.9013,0,U,38860,999,70390,.58106682E-4,.452E-5,0
COSMOS 2484 (RODNIK-S 6),2013-001C,2026-07-16T06:49:58.816992,12.42940308,.00256101,82.4991,203.8019,333.2051,26.7704,0,U,39059,999,61217,-.43699543E-3,-.51E-6,0
SARAL,2013-009A,2026-07-16T07:11:23.815680,14.32895955,.00017611,98.5556,23.4988,163.9147,196.2094,0,U,39086,999,69977,.23147134E-4,.19E-6,0
STRAND-1,2013-009E,2026-07-16T07:07:40.404288,14.37179203,.00094619,98.3935,16.8169,138.0921,222.0991,0,U,39090,999,70124,.5190816E-4,.112E-5,0
BRITE-AUSTRIA,2013-009F,2026-07-16T01:03:13.047264,14.36552721,.00108094,98.4009,15.7674,148.2512,211.9329,0,U,39091,999,70119,.38471619E-4,.7E-6,0
GAOFEN-1,2013-018A,2026-07-16T06:30:06.718176,14.76518116,.00171259,97.9089,268.7458,167.7381,192.4249,0,U,39150,999,71253,-.16773369E-4,-.168E-5,0
NEE-01 PEGASO,2013-018B,2026-07-15T08:00:06.314688,14.93789204,.00136937,98.1256,341.4213,73.9409,286.3317,0,U,39151,999,71490,.11642538E-3,.1174E-4,0
PROBA-V,2013-021A,2026-07-15T22:27:35.519328,14.23603473,.0005231,98.3606,174.1262,58.2568,301.9121,0,U,39159,999,68520,.24298E-4,.14E-6,0
ARIRANG-5 (KOMPSAT-5),2013-042A,2026-07-16T07:07:13.884672,15.04495046,.00053215,97.6202,23.5881,55.1345,305.0381,0,U,39227,999,70823,.11557159E-4,.101E-5,0
GONETS-M 5,2013-048A,2026-07-16T08:02:46.824288,12.42893114,.00173794,82.4857,325.2097,147.2830,212.9330,0,U,39249,999,58250,.10993939E-2,.162E-5,0
GONETS-M 7,2013-048C,2026-07-16T07:08:40.582752,12.42915414,.00181734,82.4923,328.1705,148.6335,211.5833,0,U,39251,999,58245,-.11040663E-3,-.5E-7,0
FENGYUN 3C,2013-052A,2026-07-16T05:33:56.397600,14.15760923,.00136268,98.4999,169.7762,302.7545,57.2316,0,U,39260,999,66267,.31456424E-4,.2E-6,0
CASSIOPE,2013-055A,2026-07-16T06:22:56.882496,15.27458637,.02827139,80.9127,31.3350,324.2424,34.0157,0,U,39265,999,67210,.18173901E-3,.16995E-3,-.546476E-6
APRIZESAT 7,2013-066A,2026-07-16T03:13:21.191520,14.91620251,.00372648,97.7723,149.9413,114.3183,246.1934,0,U,39416,999,68554,.60071535E-4,.553E-5,0
ZACUBE-1 (TSHEPISOSAT),2013-066B,2026-07-16T06:25:27.747264,15.01331206,.00440718,97.8007,159.7476,151.7764,208.5862,0,U,39417,999,68509,.91041302E-4,.1132E-4,0
APRIZESAT 8,2013-066K,2026-07-16T06:21:53.280000,14.87697277,.00455827,97.8230,144.3303,188.3393,171.7071,0,U,39425,999,68399,.44048434E-4,.351E-5,0
